{"name":"ns1","ns_config":{"image_map":{"Satellite":"docker.io/realssd/satellite-router:latest"},"container_envs":{},"resource_map":{"Satellite":{"nano_cpu":"100M","memory_byte":"32M"}}},"inst_config":[{"type":"Satellite","extra":{"OrbitIndex":"0","SatelliteIndex":"0","TLE_0":"NODE_0_0","TLE_1":"1 00000U 23666A   24015.49876652  .00000000  00000-0 00000000 0 00004","TLE_2":"2 00000  90.0000 000.0000 0000011   0.0000   0.0000 20.00000000000005"}},{"type":"Satellite","extra":{"OrbitIndex":"0","SatelliteIndex":"1","TLE_0":"NODE_0_1","TLE_1":"1 00000U 23666A   24015.49876652  .00000000  00000-0 00000000 0 00004","TLE_2":"2 00000  90.0000 000.0000 0000011   0.0000  60.0000 20.00000000000001"}},{"type":"Satellite","extra":{"OrbitIndex":"0","SatelliteIndex":"2","TLE_0":"NODE_0_2","TLE_1":"1 00000U 23666A   24015.49876652  .00000000  00000-0 00000000 0 00004","TLE_2":"2 00000  90.0000 000.0000 0000011   0.0000 120.0000 20.00000000000008"}},{"type":"Satellite","extra":{"OrbitIndex":"0","SatelliteIndex":"3","TLE_0":"NODE_0_3","TLE_1":"1 00000U 23666A   24015.49876652  .00000000  00000-0 00000000 0 00004","TLE_2":"2 00000  90.0000 000.0000 0000011   0.0000 180.0000 20.00000000000004"}},{"type":"Satellite","extra":{"OrbitIndex":"0","SatelliteIndex":"4","TLE_0":"NODE_0_4","TLE_1":"1 00000U 23666A   24015.49876652  .00000000  00000-0 00000000 0 00004","TLE_2":"2 00000  90.0000 000.0000 0000011   0.0000 240.0000 20.00000000000001"}},{"type":"Satellite","extra":{"OrbitIndex":"0","SatelliteIndex":"5","TLE_0":"NODE_0_5","TLE_1":"1 00000U 23666A   24015.49876652  .00000000  00000-0 00000000 0 00004","TLE_2":"2 00000  90.0000 000.0000 0000011   0.0000 300.0000 20.00000000000008"}},{"type":"Satellite","extra":{"OrbitIndex":"0","SatelliteIndex":"6","TLE_0":"NODE_1_0","TLE_1":"1 00000U 23666A   24015.49876652  .00000000  00000-0 00000000 0 00004","TLE_2":"2 00000  90.0000 036.0000 0000011   0.0000   5.0000 20.00000000000009"}},{"type":"Satellite","extra":{"OrbitIndex":"0","SatelliteIndex":"7","TLE_0":"NODE_1_1","TLE_1":"1 00000U 23666A   24015.49876652  .00000000  00000-0 00000000 0 00004","TLE_2":"2 00000  90.0000 036.0000 0000011   0.0000  65.0000 20.00000000000005"}},{"type":"Satellite","extra":{"OrbitIndex":"0","SatelliteIndex":"8","TLE_0":"NODE_1_2","TLE_1":"1 00000U 23666A   24015.49876652  .00000000  00000-0 00000000 0 00004","TLE_2":"2 00000  90.0000 036.0000 0000011   0.0000 125.0000 20.00000000000002"}},{"type":"Satellite","extra":{"OrbitIndex":"0","SatelliteIndex":"9","TLE_0":"NODE_1_3","TLE_1":"1 00000U 23666A   24015.49876652  .00000000  00000-0 00000000 0 00004","TLE_2":"2 00000  90.0000 036.0000 0000011   0.0000 185.0000 20.00000000000008"}},{"type":"Satellite","extra":{"OrbitIndex":"1","SatelliteIndex":"0","TLE_0":"NODE_1_4","TLE_1":"1 00000U 23666A   24015.49876652  .00000000  00000-0 00000000 0 00004","TLE_2":"2 00000  90.0000 036.0000 0000011   0.0000 245.0000 20.00000000000005"}},{"type":"Satellite","extra":{"OrbitIndex":"1","SatelliteIndex":"1","TLE_0":"NODE_1_5","TLE_1":"1 00000U 23666A   24015.49876652  .00000000  00000-0 00000000 0 00004","TLE_2":"2 00000  90.0000 036.0000 0000011   0.0000 305.0000 20.00000000000002"}},{"type":"Satellite","extra":{"OrbitIndex":"1","SatelliteIndex":"2","TLE_0":"NODE_2_0","TLE_1":"1 00000U 23666A   24015.49876652  .00000000  00000-0 00000000 0 00004","TLE_2":"2 00000  90.0000 072.0000 0000011   0.0000  10.0000 20.00000000000005"}},{"type":"Satellite","extra":{"OrbitIndex":"1","SatelliteIndex":"3","TLE_0":"NODE_2_1","TLE_1":"1 00000U 23666A   24015.49876652  .00000000  00000-0 00000000 0 00004","TLE_2":"2 00000  90.0000 072.0000 0000011   0.0000  70.0000 20.00000000000001"}},{"type":"Satellite","extra":{"OrbitIndex":"1","SatelliteIndex":"4","TLE_0":"NODE_2_2","TLE_1":"1 00000U 23666A   24015.49876652  .00000000  00000-0 00000000 0 00004","TLE_2":"2 00000  90.0000 072.0000 0000011   0.0000 130.0000 20.00000000000008"}},{"type":"Satellite","extra":{"OrbitIndex":"1","SatelliteIndex":"5","TLE_0":"NODE_2_3","TLE_1":"1 00000U 23666A   24015.49876652  .00000000  00000-0 00000000 0 00004","TLE_2":"2 00000  90.0000 072.0000 0000011   0.0000 190.0000 20.00000000000004"}},{"type":"Satellite","extra":{"OrbitIndex":"1","SatelliteIndex":"6","TLE_0":"NODE_2_4","TLE_1":"1 00000U 23666A   24015.49876652  .00000000  00000-0 00000000 0 00004","TLE_2":"2 00000  90.0000 072.0000 0000011   0.0000 250.0000 20.00000000000001"}},{"type":"Satellite","extra":{"OrbitIndex":"1","SatelliteIndex":"7","TLE_0":"NODE_2_5","TLE_1":"1 00000U 23666A   24015.49876652  .00000000  00000-0 00000000 0 00004","TLE_2":"2 00000  90.0000 072.0000 0000011   0.0000 310.0000 20.00000000000008"}},{"type":"Satellite","extra":{"OrbitIndex":"1","SatelliteIndex":"8","TLE_0":"NODE_3_0","TLE_1":"1 00000U 23666A   24015.49876652  .00000000  00000-0 00000000 0 00004","TLE_2":"2 00000  90.0000 108.0000 0000011   0.0000  15.0000 20.00000000000000"}},{"type":"Satellite","extra":{"OrbitIndex":"1","SatelliteIndex":"9","TLE_0":"NODE_3_1","TLE_1":"1 00000U 23666A   24015.49876652  .00000000  00000-0 00000000 0 00004","TLE_2":"2 00000  90.0000 108.0000 0000011   0.0000  75.0000 20.00000000000006"}},{"type":"Satellite","extra":{"OrbitIndex":"2","SatelliteIndex":"0","TLE_0":"NODE_3_2","TLE_1":"1 00000U 23666A   24015.49876652  .00000000  00000-0 00000000 0 00004","TLE_2":"2 00000  90.0000 108.0000 0000011   0.0000 135.0000 20.00000000000003"}},{"type":"Satellite","extra":{"OrbitIndex":"2","SatelliteIndex":"1","TLE_0":"NODE_3_3","TLE_1":"1 00000U 23666A   24015.49876652  .00000000  00000-0 00000000 0 00004","TLE_2":"2 00000  90.0000 108.0000 0000011   0.0000 195.0000 20.00000000000009"}},{"type":"Satellite","extra":{"OrbitIndex":"2","SatelliteIndex":"2","TLE_0":"NODE_3_4","TLE_1":"1 00000U 23666A   24015.49876652  .00000000  00000-0 00000000 0 00004","TLE_2":"2 00000  90.0000 108.0000 0000011   0.0000 255.0000 20.00000000000006"}},{"type":"Satellite","extra":{"OrbitIndex":"2","SatelliteIndex":"3","TLE_0":"NODE_3_5","TLE_1":"1 00000U 23666A   24015.49876652  .00000000  00000-0 00000000 0 00004","TLE_2":"2 00000  90.0000 108.0000 0000011   0.0000 315.0000 20.00000000000003"}},{"type":"Satellite","extra":{"OrbitIndex":"2","SatelliteIndex":"4","TLE_0":"NODE_4_0","TLE_1":"1 00000U 23666A   24015.49876652  .00000000  00000-0 00000000 0 00004","TLE_2":"2 00000  90.0000 144.0000 0000011   0.0000  20.0000 20.00000000000006"}},{"type":"Satellite","extra":{"OrbitIndex":"2","SatelliteIndex":"5","TLE_0":"NODE_4_1","TLE_1":"1 00000U 23666A   24015.49876652  .00000000  00000-0 00000000 0 00004","TLE_2":"2 00000  90.0000 144.0000 0000011   0.0000  80.0000 20.00000000000002"}},{"type":"Satellite","extra":{"OrbitIndex":"2","SatelliteIndex":"6","TLE_0":"NODE_4_2","TLE_1":"1 00000U 23666A   24015.49876652  .00000000  00000-0 00000000 0 00004","TLE_2":"2 00000  90.0000 144.0000 0000011   0.0000 140.0000 20.00000000000009"}},{"type":"Satellite","extra":{"OrbitIndex":"2","SatelliteIndex":"7","TLE_0":"NODE_4_3","TLE_1":"1 00000U 23666A   24015.49876652  .00000000  00000-0 00000000 0 00004","TLE_2":"2 00000  90.0000 144.0000 0000011   0.0000 200.0000 20.00000000000006"}},{"type":"Satellite","extra":{"OrbitIndex":"2","SatelliteIndex":"8","TLE_0":"NODE_4_4","TLE_1":"1 00000U 23666A   24015.49876652  .00000000  00000-0 00000000 0 00004","TLE_2":"2 00000  90.0000 144.0000 0000011   0.0000 260.0000 20.00000000000002"}},{"type":"Satellite","extra":{"OrbitIndex":"2","SatelliteIndex":"9","TLE_0":"NODE_4_5","TLE_1":"1 00000U 23666A   24015.49876652  .00000000  00000-0 00000000 0 00004","TLE_2":"2 00000  90.0000 144.0000 0000011   0.0000 320.0000 20.00000000000009"}}],"link_config":[{"type":"VirtualLink","instance_index":[29,24],"parameter":{}},{"type":"VirtualLink","instance_index":[0,1],"parameter":{}},{"type":"VirtualLink","instance_index":[0,6],"parameter":{}},{"type":"VirtualLink","instance_index":[4,5],"parameter":{}},{"type":"VirtualLink","instance_index":[4,10],"parameter":{}},{"type":"VirtualLink","instance_index":[9,10],"parameter":{}},{"type":"VirtualLink","instance_index":[9,15],"parameter":{}},{"type":"VirtualLink","instance_index":[13,14],"parameter":{}},{"type":"VirtualLink","instance_index":[13,19],"parameter":{}},{"type":"VirtualLink","instance_index":[22,23],"parameter":{}},{"type":"VirtualLink","instance_index":[22,28],"parameter":{}},{"type":"VirtualLink","instance_index":[28,29],"parameter":{}},{"type":"VirtualLink","instance_index":[5,0],"parameter":{}},{"type":"VirtualLink","instance_index":[5,11],"parameter":{}},{"type":"VirtualLink","instance_index":[12,13],"parameter":{}},{"type":"VirtualLink","instance_index":[12,18],"parameter":{}},{"type":"VirtualLink","instance_index":[1,2],"parameter":{}},{"type":"VirtualLink","instance_index":[1,7],"parameter":{}},{"type":"VirtualLink","instance_index":[6,7],"parameter":{}},{"type":"VirtualLink","instance_index":[6,12],"parameter":{}},{"type":"VirtualLink","instance_index":[16,17],"parameter":{}},{"type":"VirtualLink","instance_index":[16,22],"parameter":{}},{"type":"VirtualLink","instance_index":[2,3],"parameter":{}},{"type":"VirtualLink","instance_index":[2,8],"parameter":{}},{"type":"VirtualLink","instance_index":[15,16],"parameter":{}},{"type":"VirtualLink","instance_index":[15,21],"parameter":{}},{"type":"VirtualLink","instance_index":[27,28],"parameter":{}},{"type":"VirtualLink","instance_index":[3,4],"parameter":{}},{"type":"VirtualLink","instance_index":[3,9],"parameter":{}},{"type":"VirtualLink","instance_index":[17,12],"parameter":{}},{"type":"VirtualLink","instance_index":[17,23],"parameter":{}},{"type":"VirtualLink","instance_index":[23,18],"parameter":{}},{"type":"VirtualLink","instance_index":[23,29],"parameter":{}},{"type":"VirtualLink","instance_index":[26,27],"parameter":{}},{"type":"VirtualLink","instance_index":[10,11],"parameter":{}},{"type":"VirtualLink","instance_index":[10,16],"parameter":{}},{"type":"VirtualLink","instance_index":[14,15],"parameter":{}},{"type":"VirtualLink","instance_index":[14,20],"parameter":{}},{"type":"VirtualLink","instance_index":[19,20],"parameter":{}},{"type":"VirtualLink","instance_index":[19,25],"parameter":{}},{"type":"VirtualLink","instance_index":[21,22],"parameter":{}},{"type":"VirtualLink","instance_index":[21,27],"parameter":{}},{"type":"VirtualLink","instance_index":[24,25],"parameter":{}},{"type":"VirtualLink","instance_index":[7,8],"parameter":{}},{"type":"VirtualLink","instance_index":[7,13],"parameter":{}},{"type":"VirtualLink","instance_index":[8,9],"parameter":{}},{"type":"VirtualLink","instance_index":[8,14],"parameter":{}},{"type":"VirtualLink","instance_index":[11,6],"parameter":{}},{"type":"VirtualLink","instance_index":[11,17],"parameter":{}},{"type":"VirtualLink","instance_index":[18,19],"parameter":{}},{"type":"VirtualLink","instance_index":[18,24],"parameter":{}},{"type":"VirtualLink","instance_index":[20,21],"parameter":{}},{"type":"VirtualLink","instance_index":[20,26],"parameter":{}},{"type":"VirtualLink","instance_index":[25,26],"parameter":{}}]}